{
    "links": {
        "self": "http://www.neowsapp.com/rest/v1/neo/3766295?api_key=iIulBulltgU6a56xZRHN4H3l9WmuAYTsLGpBGhQ2"
    },
    "id": "3766295",
    "neo_reference_id": "3766295",
    "name": "(2017 AG3)",
    "designation": "2017 AG3",
    "nasa_jpl_url": "http://ssd.jpl.nasa.gov/sbdb.cgi?sstr=3766295",
    "absolute_magnitude_h": 25.4,
    "estimated_diameter": {
        "kilometers": {
            "estimated_diameter_min": 0.022108281,
            "estimated_diameter_max": 0.0494356193
        },
        "meters": {
            "estimated_diameter_min": 22.1082810359,
            "estimated_diameter_max": 49.435619262
        },
        "miles": {
            "estimated_diameter_min": 0.0137374447,
            "estimated_diameter_max": 0.0307178602
        },
        "feet": {
            "estimated_diameter_min": 72.5337327539,
            "estimated_diameter_max": 162.1903570994
        }
    },
    "is_potentially_hazardous_asteroid": false,
    "close_approach_data": [
        {
            "close_approach_date": "1955-12-31",
            "close_approach_date_full": "1955-Dec-31 08:33",
            "epoch_date_close_approach": -441905220000,
            "relative_velocity": {
                "kilometers_per_second": "14.9891840528",
                "kilometers_per_hour": "53961.0625899385",
                "miles_per_hour": "33529.3058076204"
            },
            "miss_distance": {
                "astronomical": "0.11176182",
                "lunar": "43.47534798",
                "kilometers": "16719330.2193234",
                "miles": "10388910.05812692"
            },
            "orbiting_body": "Earth"
        },
        {
            "close_approach_date": "2016-12-19",
            "close_approach_date_full": "2016-Dec-19 00:45",
            "epoch_date_close_approach": 1482108300000,
            "relative_velocity": {
                "kilometers_per_second": "10.7338118894",
                "kilometers_per_hour": "38641.7228018047",
                "miles_per_hour": "24010.4638153769"
            },
            "miss_distance": {
                "astronomical": "0.0408012719",
                "lunar": "15.8716947691",
                "kilometers": "6103783.369530853",
                "miles": "3792715.1152896514"
            },
            "orbiting_body": "Earth"
        }
    ],
    "orbital_data": {
        "orbit_id": "3",
        "orbit_determination_date": "2017-04-06 08:21:13",
        "first_observation_date": "2017-01-02",
        "last_observation_date": "2017-01-08",
        "data_arc_in_days": 6,
        "observations_used": 14,
        "orbit_uncertainty": "8",
        "minimum_orbit_intersection": ".0241579",
        "jupiter_tisserand_invariant": "4.280",
        "epoch_osculation": "2457756.5",
        "eccentricity": ".4757352361082049",
        "semi_major_axis": "1.569942973168289",
        "inclination": "1.59011198064529",
        "ascending_node_longitude": "24.93236644582819",
        "orbital_period": "718.4958149926981",
        "perihelion_distance": ".8230657821516556",
        "perihelion_argument": "5.910367915541462",
        "aphelion_distance": "2.316820164184922",
        "perihelion_time": "2457700.747703612446",
        "mean_anomaly": "27.93450745391386",
        "mean_motion": ".5010467597555298",
        "equinox": "J2000",
        "orbit_class": {
            "orbit_class_type": "APO",
            "orbit_class_description": "Near-Earth asteroid orbits which cross the Earth’s orbit similar to that of 1862 Apollo",
            "orbit_class_range": "a (semi-major axis) > 1.0 AU; q (perihelion) < 1.017 AU"
        }
    },
    "is_sentry_object": false
}